IRIDIUM 119             
1 42959U 17061E   24305.67568051  .00000393  00000+0  13330-3 0  9993
2 42959  86.3923 273.2356 0002575  92.8641 267.2849 14.34217318369740
IRIDIUM 107             
1 42960U 17061F   24305.62492435  .00000785  00000+0  27314-3 0  9994
2 42960  86.3924 273.2748 0002631  87.3430 272.8067 14.34210014369757
IRIDIUM 132             
1 42961U 17061G   24305.77081887  .00000984  00000+0  34420-3 0  9993
2 42961  86.3923 273.1970 0002648  85.7166 274.4333 14.34218662369761
IRIDIUM 136             
1 42962U 17061H   24305.80252745  .00000021  00000+0  51297-6 0  9997
2 42962  86.3923 273.1878 0002335  91.9030 268.2433 14.34212070369782
IRIDIUM 139             
1 42963U 17061J   24305.32049563  .00001221  00000+0  42870-3 0  9994
2 42963  86.3919 273.4418 0002623  88.6726 271.4771 14.34216241369725
IRIDIUM 125             
1 42964U 17061K   24305.51710577  .00000828  00000+0  28863-3 0  9994
2 42964  86.3928 273.4094 0002578  97.7451 262.4038 14.34223528369767
IRIDIUM 135             
1 43070U 17083A   24305.14239737  .00000599  00000+0  20673-3 0  9996
2 43070  86.4019 210.2489 0001874  73.5139 286.6262 14.34216966359009
IRIDIUM 138             
1 43071U 17083B   24305.79567372  .00001273  00000+0  44751-3 0  9990
2 43071  86.4015 209.6769 0002047  98.8629 261.2799 14.34205342359084
